start=new Date('2022-07-05T00:00:00.000Z').valueOf();
sats=[{"MEAN_MOTION":"15.08837014","TLE_LINE1":"1 51120U 22005S   22185.77631126 -.00001170  00000-0 -55398-4 0  9994","OBJECT_ID":"2022-005S","REF_FRAME":"TEME","SITE":"AFETR","ECCENTRICITY":"0.00022780","PERIAPSIS":"538.179","RA_OF_ASC_NODE":"202.1915","TIME_SYSTEM":"UTC","INCLINATION":"53.2171","APOAPSIS":"541.330","RCS_SIZE":"LARGE","ARG_OF_PERICENTER":"43.7351","DECAY_DATE":null,"NORAD_CAT_ID":"51120","LAUNCH_DATE":"2022-01-19","TLE_LINE2":"2 51120  53.2171 202.1915 0002278  43.7351 316.3822 15.08837014 25999","BSTAR":"-0.00005539800000","PERIOD":"95.438","CLASSIFICATION_TYPE":"U","ELEMENT_SET_NO":"999","MEAN_MOTION_DOT":"-0.00001170","FILE":"3507746","COUNTRY_CODE":"US","OBJECT_NAME":"STARLINK-3398","SEMIMAJOR_AXIS":"6917.890","MEAN_ANOMALY":"316.3822","REV_AT_EPOCH":"2599","EPOCH":"2022-07-04T18:37:53.292864","EPHEMERIS_TYPE":"0","GP_ID":"207417881","MEAN_MOTION_DDOT":"0.0000000000000","CENTER_NAME":"EARTH","OBJECT_TYPE":"PAYLOAD","MEAN_ELEMENT_THEORY":"SGP4"},{"CENTER_NAME":"EARTH","OBJECT_TYPE":"PAYLOAD","MEAN_ELEMENT_THEORY":"SGP4","EPHEMERIS_TYPE":"0","GP_ID":"207390142","MEAN_MOTION_DDOT":"0.0000000000000","OBJECT_NAME":"STARLINK-3399","SEMIMAJOR_AXIS":"6917.872","MEAN_ANOMALY":"318.1770","REV_AT_EPOCH":"2594","EPOCH":"2022-07-04T11:02:10.465440","LAUNCH_DATE":"2022-01-19","TLE_LINE2":"2 51121  53.2156 203.5941 0002136  41.9385 318.1770 15.08842780 25940","PERIOD":"95.437","CLASSIFICATION_TYPE":"U","BSTAR":"0.00004843300000","ELEMENT_SET_NO":"999","MEAN_MOTION_DOT":"0.00000483","FILE":"3507601","COUNTRY_CODE":"US","DECAY_DATE":null,"NORAD_CAT_ID":"51121","RA_OF_ASC_NODE":"203.5941","PERIAPSIS":"538.259","TIME_SYSTEM":"UTC","INCLINATION":"53.2156","RCS_SIZE":"LARGE","APOAPSIS":"541.215","ARG_OF_PERICENTER":"41.9385","ECCENTRICITY":"0.00021360","MEAN_MOTION":"15.08842780","TLE_LINE1":"1 51121U 22005T   22185.45984335  .00000483  00000-0  48433-4 0  9999","OBJECT_ID":"2022-005T","REF_FRAME":"TEME","SITE":"AFETR"},{"GP_ID":"207419379","EPHEMERIS_TYPE":"0","MEAN_MOTION_DDOT":"0.0000000000000","CENTER_NAME":"EARTH","MEAN_ELEMENT_THEORY":"SGP4","OBJECT_TYPE":"PAYLOAD","ELEMENT_SET_NO":"999","CLASSIFICATION_TYPE":"U","TLE_LINE2":"2 51122  53.2164 202.1726 0002162  54.6655 305.4539 15.08834515 25990","PERIOD":"95.438","BSTAR":"0.00006771500000","LAUNCH_DATE":"2022-01-19","COUNTRY_CODE":"US","MEAN_MOTION_DOT":"0.00000789","FILE":"3507746","REV_AT_EPOCH":"2599","MEAN_ANOMALY":"305.4539","SEMIMAJOR_AXIS":"6917.897","OBJECT_NAME":"STARLINK-3373","EPOCH":"2022-07-04T18:43:11.766720","TIME_SYSTEM":"UTC","RA_OF_ASC_NODE":"202.1726","PERIAPSIS":"538.267","APOAPSIS":"541.258","RCS_SIZE":"LARGE","ARG_OF_PERICENTER":"54.6655","INCLINATION":"53.2164","DECAY_DATE":null,"NORAD_CAT_ID":"51122","TLE_LINE1":"1 51122U 22005U   22185.77999730  .00000789  00000-0  67715-4 0  9993","OBJECT_ID":"2022-005U","MEAN_MOTION":"15.08834515","SITE":"AFETR","REF_FRAME":"TEME","ECCENTRICITY":"0.00021620"},{"SITE":"AFETR","REF_FRAME":"TEME","TLE_LINE1":"1 51123U 22005V   22185.77263111  .00000641  00000-0  58378-4 0  9993","OBJECT_ID":"2022-005V","MEAN_MOTION":"15.08837155","ECCENTRICITY":"0.00022640","APOAPSIS":"541.320","RCS_SIZE":"LARGE","ARG_OF_PERICENTER":"45.1908","INCLINATION":"53.2167","TIME_SYSTEM":"UTC","RA_OF_ASC_NODE":"202.2060","PERIAPSIS":"538.188","NORAD_CAT_ID":"51123","DECAY_DATE":null,"MEAN_MOTION_DOT":"0.00000641","FILE":"3507746","COUNTRY_CODE":"US","TLE_LINE2":"2 51123  53.2167 202.2060 0002264  45.1908 314.9267 15.08837155 25991","BSTAR":"0.00005837800000","PERIOD":"95.438","CLASSIFICATION_TYPE":"U","ELEMENT_SET_NO":"999","LAUNCH_DATE":"2022-01-19","EPOCH":"2022-07-04T18:32:35.327904","MEAN_ANOMALY":"314.9267","REV_AT_EPOCH":"2599","OBJECT_NAME":"STARLINK-3392","SEMIMAJOR_AXIS":"6917.889","MEAN_MOTION_DDOT":"0.0000000000000","GP_ID":"207419621","EPHEMERIS_TYPE":"0","MEAN_ELEMENT_THEORY":"SGP4","OBJECT_TYPE":"PAYLOAD","CENTER_NAME":"EARTH"},{"NORAD_CAT_ID":"51124","DECAY_DATE":null,"INCLINATION":"53.2177","RCS_SIZE":"LARGE","APOAPSIS":"541.107","ARG_OF_PERICENTER":"51.3221","PERIAPSIS":"538.385","RA_OF_ASC_NODE":"213.4873","TIME_SYSTEM":"UTC","ECCENTRICITY":"0.00019670","REF_FRAME":"TEME","SITE":"AFETR","MEAN_MOTION":"15.08839831","OBJECT_ID":"2022-005W","TLE_LINE1":"1 51124U 22005W   22185.48466404 -.00000945  00000-0 -41250-4 0  9992","OBJECT_TYPE":"PAYLOAD","MEAN_ELEMENT_THEORY":"SGP4","CENTER_NAME":"EARTH","MEAN_MOTION_DDOT":"0.0000000000000","EPHEMERIS_TYPE":"0","GP_ID":"207390882","EPOCH":"2022-07-04T11:37:54.973056","OBJECT_NAME":"STARLINK-3389","SEMIMAJOR_AXIS":"6917.881","MEAN_ANOMALY":"308.7947","REV_AT_EPOCH":"2581","MEAN_MOTION_DOT":"-0.00000945","FILE":"3507601","COUNTRY_CODE":"US","LAUNCH_DATE":"2022-01-19","BSTAR":"-0.00004125000000","TLE_LINE2":"2 51124  53.2177 213.4873 0001967  51.3221 308.7947 15.08839831 25815","PERIOD":"95.438","CLASSIFICATION_TYPE":"U","ELEMENT_SET_NO":"999"},{"ECCENTRICITY":"0.00018320","REF_FRAME":"TEME","SITE":"AFETR","MEAN_MOTION":"15.08834143","TLE_LINE1":"1 51125U 22005X   22185.80483230 -.00000862  00000-0 -36095-4 0  9994","OBJECT_ID":"2022-005X","NORAD_CAT_ID":"51125","DECAY_DATE":null,"INCLINATION":"53.2166","ARG_OF_PERICENTER":"51.0391","RCS_SIZE":"LARGE","APOAPSIS":"541.031","PERIAPSIS":"538.496","RA_OF_ASC_NODE":"212.0619","TIME_SYSTEM":"UTC","EPOCH":"2022-07-04T19:18:57.510720","SEMIMAJOR_AXIS":"6917.898","OBJECT_NAME":"STARLINK-3387","REV_AT_EPOCH":"2584","MEAN_ANOMALY":"309.0764","COUNTRY_CODE":"US","MEAN_MOTION_DOT":"-0.00000862","FILE":"3507746","LAUNCH_DATE":"2022-01-19","ELEMENT_SET_NO":"999","TLE_LINE2":"2 51125  53.2166 212.0619 0001832  51.0391 309.0764 15.08834143 25848","CLASSIFICATION_TYPE":"U","PERIOD":"95.438","BSTAR":"-0.00003609500000","OBJECT_TYPE":"PAYLOAD","MEAN_ELEMENT_THEORY":"SGP4","CENTER_NAME":"EARTH","MEAN_MOTION_DDOT":"0.0000000000000","EPHEMERIS_TYPE":"0","GP_ID":"207418131"},{"COUNTRY_CODE":"US","MEAN_MOTION_DOT":"0.00001111","FILE":"3507746","LAUNCH_DATE":"2022-01-19","ELEMENT_SET_NO":"999","BSTAR":"0.00008789200000","TLE_LINE2":"2 51126  53.2187 213.2134 0001951  46.3864 313.7289 15.08845766 25826","PERIOD":"95.437","CLASSIFICATION_TYPE":"U","EPOCH":"2022-07-04T13:08:01.266432","SEMIMAJOR_AXIS":"6917.863","OBJECT_NAME":"STARLINK-3386","REV_AT_EPOCH":"2582","MEAN_ANOMALY":"313.7289","MEAN_MOTION_DDOT":"0.0000000000000","EPHEMERIS_TYPE":"0","GP_ID":"207418880","OBJECT_TYPE":"PAYLOAD","MEAN_ELEMENT_THEORY":"SGP4","CENTER_NAME":"EARTH","REF_FRAME":"TEME","SITE":"AFETR","MEAN_MOTION":"15.08845766","OBJECT_ID":"2022-005Y","TLE_LINE1":"1 51126U 22005Y   22185.54723688  .00001111  00000-0  87892-4 0  9997","ECCENTRICITY":"0.00019510","INCLINATION":"53.2187","APOAPSIS":"541.077","RCS_SIZE":"LARGE","ARG_OF_PERICENTER":"46.3864","PERIAPSIS":"538.378","RA_OF_ASC_NODE":"213.2134","TIME_SYSTEM":"UTC","NORAD_CAT_ID":"51126","DECAY_DATE":null},{"FILE":"3507746","MEAN_MOTION_DOT":"-0.00002194","COUNTRY_CODE":"US","LAUNCH_DATE":"2022-01-19","TLE_LINE2":"2 51127  53.2184 212.0353 0001798  54.1950 305.9209 15.08831117 25859","PERIOD":"95.438","CLASSIFICATION_TYPE":"U","BSTAR":"-0.00011983000000","ELEMENT_SET_NO":"999","EPOCH":"2022-07-04T19:24:15.336576","OBJECT_NAME":"STARLINK-3370","SEMIMAJOR_AXIS":"6917.908","MEAN_ANOMALY":"305.9209","REV_AT_EPOCH":"2585","MEAN_MOTION_DDOT":"0.0000000000000","EPHEMERIS_TYPE":"0","GP_ID":"207419122","OBJECT_TYPE":"PAYLOAD","MEAN_ELEMENT_THEORY":"SGP4","CENTER_NAME":"EARTH","REF_FRAME":"TEME","SITE":"AFETR","MEAN_MOTION":"15.08831117","OBJECT_ID":"2022-005Z","TLE_LINE1":"1 51127U 22005Z   22185.80851084 -.00002194  00000-0 -11983-3 0  9990","ECCENTRICITY":"0.00017980","INCLINATION":"53.2184","ARG_OF_PERICENTER":"54.1950","RCS_SIZE":"LARGE","APOAPSIS":"541.016","PERIAPSIS":"538.529","RA_OF_ASC_NODE":"212.0353","TIME_SYSTEM":"UTC","NORAD_CAT_ID":"51127","DECAY_DATE":null},{"MEAN_ELEMENT_THEORY":"SGP4","OBJECT_TYPE":"PAYLOAD","CENTER_NAME":"EARTH","MEAN_MOTION_DDOT":"0.0000000000000","GP_ID":"207417882","EPHEMERIS_TYPE":"0","EPOCH":"2022-07-04T18:57:44.966592","MEAN_ANOMALY":"311.6226","REV_AT_EPOCH":"2584","OBJECT_NAME":"STARLINK-3400","SEMIMAJOR_AXIS":"6917.880","FILE":"3507746","MEAN_MOTION_DOT":"0.00000732","COUNTRY_CODE":"US","PERIOD":"95.438","TLE_LINE2":"2 51128  53.2175 212.1334 0002180  48.4953 311.6226 15.08840242 25846","CLASSIFICATION_TYPE":"U","BSTAR":"0.00006410400000","ELEMENT_SET_NO":"999","LAUNCH_DATE":"2022-01-19","NORAD_CAT_ID":"51128","DECAY_DATE":null,"ARG_OF_PERICENTER":"48.4953","RCS_SIZE":"LARGE","APOAPSIS":"541.253","INCLINATION":"53.2175","TIME_SYSTEM":"UTC","PERIAPSIS":"538.237","RA_OF_ASC_NODE":"212.1334","ECCENTRICITY":"0.00021800","SITE":"AFETR","REF_FRAME":"TEME","OBJECT_ID":"2022-005AA","TLE_LINE1":"1 51128U 22005AA  22185.79010378  .00000732  00000-0  64104-4 0  9990","MEAN_MOTION":"15.08840242"},{"OBJECT_ID":"2022-005AB","TLE_LINE1":"1 51129U 22005AB  22185.48562554  .00000820  00000-0  69632-4 0  9994","MEAN_MOTION":"15.08841119","SITE":"AFETR","REF_FRAME":"TEME","ECCENTRICITY":"0.00021220","TIME_SYSTEM":"UTC","RA_OF_ASC_NODE":"213.4972","PERIAPSIS":"538.274","RCS_SIZE":"LARGE","APOAPSIS":"541.210","ARG_OF_PERICENTER":"43.9867","INCLINATION":"53.2182","DECAY_DATE":null,"NORAD_CAT_ID":"51129","ELEMENT_SET_NO":"999","TLE_LINE2":"2 51129  53.2182 213.4972 0002122  43.9867 316.1294 15.08841119 25802","BSTAR":"0.00006963200000","PERIOD":"95.437","CLASSIFICATION_TYPE":"U","LAUNCH_DATE":"2022-01-19","COUNTRY_CODE":"US","MEAN_MOTION_DOT":"0.00000820","FILE":"3507601","REV_AT_EPOCH":"2580","MEAN_ANOMALY":"316.1294","SEMIMAJOR_AXIS":"6917.877","OBJECT_NAME":"STARLINK-3396","EPOCH":"2022-07-04T11:39:18.046656","GP_ID":"207390143","EPHEMERIS_TYPE":"0","MEAN_MOTION_DDOT":"0.0000000000000","CENTER_NAME":"EARTH","MEAN_ELEMENT_THEORY":"SGP4","OBJECT_TYPE":"PAYLOAD"}];
